{"type": "FeatureCollection", "features": [ {"type": "Feature", "properties": {"norad_id": 33939, "name": "COSMOS 2251 DEB", "group": "cosmos-2251-debris", "lat": 15.385813847056703, "lon": -120.60753299424634, "alt_km": 568.3986448023243, "timestamp": "2025-12-20T22:39:11.018186+00:00", "meta": {"OBJECT_NAME": "COSMOS 2251 DEB", "OBJECT_ID": "1993-036EU", "EPOCH": "2025-12-20T13:55:27.077664", "MEAN_MOTION": 15.00394635, "ECCENTRICITY": 0.00045664, "INCLINATION": 74.0067, "RA_OF_ASC_NODE": 64.6599, "ARG_OF_PERICENTER": 28.5939, "MEAN_ANOMALY": 331.5498, "EPHEMERIS_TYPE": 0, "CLASSIFICATION_TYPE": "U", "NORAD_CAT_ID": 33939, "ELEMENT_SET_NO": 999, "REV_AT_EPOCH": 88870, "BSTAR": 0.0016037072, "MEAN_MOTION_DOT": 0.00020178, "MEAN_MOTION_DDOT": 0}, "tle": {"line1": "1 33939U 93036EU  25354.58017451  .00020178  00000+0  16037-2 0  9994", "line2": "2 33939  74.0067  64.6599 0004566  28.5939 331.5498 15.00394635888709"}}, "geometry": {"type": "Point", "coordinates": [-120.60753299424634, 15.385813847056703]}}, {"type": "Feature", "properties": {"norad_id": 33940, "name": "COSMOS 2251 DEB", "group": "cosmos-2251-debris", "lat": 24.930302902296976, "lon": -59.76938033943083, "alt_km": 691.2394289994918, "timestamp": "2025-12-20T22:39:11.018195+00:00", "meta": {"OBJECT_NAME": "COSMOS 2251 DEB", "OBJECT_ID": "1993-036EV", "EPOCH": "2025-12-20T10:41:15.075168", "MEAN_MOTION": 14.58861879, "ECCENTRICITY": 0.00109524, "INCLINATION": 74.0394, "RA_OF_ASC_NODE": 128.8243, "ARG_OF_PERICENTER": 209.208, "MEAN_ANOMALY": 207.4516, "EPHEMERIS_TYPE": 0, "CLASSIFICATION_TYPE": "U", "NORAD_CAT_ID": 33940, "ELEMENT_SET_NO": 999, "REV_AT_EPOCH": 88706, "BSTAR": 0.0007349746, "MEAN_MOTION_DOT": 3.416e-05, "MEAN_MOTION_DDOT": 0}, "tle": {"line1": "1 33940U 93036EV  25354.44531337  .00003416  00000+0  73497-3 0  9995", "line2": "2 33940  74.0394 128.8243 0010952 209.2080 207.4516 14.58861879887065"}}, "geometry": {"type": "Point", "coordinates": [-59.76938033943083, 24.930302902296976]}}, {"type": "Feature", "properties": {"norad_id": 33942, "name": "COSMOS 2251 DEB", "group": "cosmos-2251-debris", "lat": 72.75002282782111, "lon": 12.522313629873377, "alt_km": 764.0289558462409, "timestamp": "2025-12-20T22:39:11.018205+00:00", "meta": {"OBJECT_NAME": "COSMOS 2251 DEB", "OBJECT_ID": "1993-036EX", "EPOCH": "2025-12-20T04:35:24.686016", "MEAN_MOTION": 14.37998555, "ECCENTRICITY": 0.00206331, "INCLINATION": 74.0365, "RA_OF_ASC_NODE": 261.1058, "ARG_OF_PERICENTER": 342.9597, "MEAN_ANOMALY": 178.8252, "EPHEMERIS_TYPE": 0, "CLASSIFICATION_TYPE": "U", "NORAD_CAT_ID": 33942, "ELEMENT_SET_NO": 999, "REV_AT_EPOCH": 88241, "BSTAR": 0.00015948369, "MEAN_MOTION_DOT": 4.57e-06, "MEAN_MOTION_DDOT": 0}, "tle": {"line1": "1 33942U 93036EX  25354.19125794  .00000457  00000+0  15948-3 0  9994", "line2": "2 33942  74.0365 261.1058 0020633 342.9597 178.8252 14.37998555882416"}}, "geometry": {"type": "Point", "coordinates": [12.522313629873377, 72.75002282782111]}}, {"type": "Feature", "properties": {"norad_id": 33944, "name": "COSMOS 2251 DEB", "group": "cosmos-2251-debris", "lat": -46.94705035811694, "lon": -84.00397605055674, "alt_km": 759.8382445724947, "timestamp": "2025-12-20T22:39:11.018230+00:00", "meta": {"OBJECT_NAME": "COSMOS 2251 DEB", "OBJECT_ID": "1993-036EZ", "EPOCH": "2025-12-20T06:56:11.641632", "MEAN_MOTION": 14.37359, "ECCENTRICITY": 0.01125006, "INCLINATION": 74.0407, "RA_OF_ASC_NODE": 295.0369, "ARG_OF_PERICENTER": 32.7035, "MEAN_ANOMALY": 132.0062, "EPHEMERIS_TYPE": 0, "CLASSIFICATION_TYPE": "U", "NORAD_CAT_ID": 33944, "ELEMENT_SET_NO": 999, "REV_AT_EPOCH": 88136, "BSTAR": 0.00026372471, "MEAN_MOTION_DOT": 8.2e-06, "MEAN_MOTION_DDOT": 0}, "tle": {"line1": "1 33944U 93036EZ  25354.28902363  .00000820  00000+0  26372-3 0  9998", "line2": "2 33944  74.0407 295.0369 0112500  32.7035 132.0062 14.37359000881362"}}, "geometry": {"type": "Point", "coordinates": [-84.00397605055674, -46.94705035811694]}}, {"type": "Feature", "properties": {"norad_id": 33945, "name": "COSMOS 2251 DEB", "group": "cosmos-2251-debris", "lat": 22.607948699166684, "lon": -61.916895105817716, "alt_km": 759.8955553771684, "timestamp": "2025-12-20T22:39:11.018255+00:00", "meta": {"OBJECT_NAME": "COSMOS 2251 DEB", "OBJECT_ID": "1993-036FA", "EPOCH": "2025-12-20T14:10:33.684096", "MEAN_MOTION": 14.34606483, "ECCENTRICITY": 0.00222539, "INCLINATION": 74.0302, "RA_OF_ASC_NODE": 291.8814, "ARG_OF_PERICENTER": 16.105, "MEAN_ANOMALY": 344.0804, "EPHEMERIS_TYPE": 0, "CLASSIFICATION_TYPE": "U", "NORAD_CAT_ID": 33945, "ELEMENT_SET_NO": 999, "REV_AT_EPOCH": 88128, "BSTAR": 9.2365098e-05, "MEAN_MOTION_DOT": 2.36e-06, "MEAN_MOTION_DDOT": 0}, "tle": {"line1": "1 33945U 93036FA  25354.59066764  .00000236  00000+0  92365-4 0  9996", "line2": "2 33945  74.0302 291.8814 0022253  16.1050 344.0804 14.34606483881281"}}, "geometry": {"type": "Point", "coordinates": [-61.916895105817716, 22.607948699166684]}}, {"type": "Feature", "properties": {"norad_id": 33948, "name": "COSMOS 2251 DEB", "group": "cosmos-2251-debris", "lat": -72.48801116029401, "lon": 175.20409811140345, "alt_km": 783.0641659157782, "timestamp": "2025-12-20T22:39:11.018265+00:00", "meta": {"OBJECT_NAME": "COSMOS 2251 DEB", "OBJECT_ID": "1993-036FD", "EPOCH": "2025-12-20T06:22:49.549728", "MEAN_MOTION": 14.35637518, "ECCENTRICITY": 0.00230625, "INCLINATION": 74.036, "RA_OF_ASC_NODE": 291.3252, "ARG_OF_PERICENTER": 5.314, "MEAN_ANOMALY": 354.8253, "EPHEMERIS_TYPE": 0, "CLASSIFICATION_TYPE": "U", "NORAD_CAT_ID": 33948, "ELEMENT_SET_NO": 999, "REV_AT_EPOCH": 88131, "BSTAR": 0.00014276471, "MEAN_MOTION_DOT": 3.87e-06, "MEAN_MOTION_DDOT": 0}, "tle": {"line1": "1 33948U 93036FD  25354.26585127  .00000387  00000+0  14276-3 0  9993", "line2": "2 33948  74.0360 291.3252 0023062   5.3140 354.8253 14.35637518881313"}}, "geometry": {"type": "Point", "coordinates": [175.20409811140345, -72.48801116029401]}}, {"type": "Feature", "properties": {"norad_id": 33971, "name": "COSMOS 2251 DEB", "group": "cosmos-2251-debris", "lat": 73.89804310496889, "lon": -24.34742068325477, "alt_km": 757.4758520773712, "timestamp": "2025-12-20T22:39:11.018274+00:00", "meta": {"OBJECT_NAME": "COSMOS 2251 DEB", "OBJECT_ID": "1993-036FE", "EPOCH": "2025-12-20T02:54:46.541664", "MEAN_MOTION": 14.39737294, "ECCENTRICITY": 0.00188346, "INCLINATION": 74.0244, "RA_OF_ASC_NODE": 240.091, "ARG_OF_PERICENTER": 339.295, "MEAN_ANOMALY": 171.0908, "EPHEMERIS_TYPE": 0, "CLASSIFICATION_TYPE": "U", "NORAD_CAT_ID": 33971, "ELEMENT_SET_NO": 999, "REV_AT_EPOCH": 88245, "BSTAR": 0.00019059706, "MEAN_MOTION_DOT": 5.72e-06, "MEAN_MOTION_DDOT": 0}, "tle": {"line1": "1 33971U 93036FE  25354.12137201  .00000572  00000+0  19060-3 0  9992", "line2": "2 33971  74.0244 240.0910 0018834 339.2950 171.0908 14.39737294882459"}}, "geometry": {"type": "Point", "coordinates": [-24.34742068325477, 73.89804310496889]}}, {"type": "Feature", "properties": {"norad_id": 33972, "name": "COSMOS 2251 DEB", "group": "cosmos-2251-debris", "lat": -67.57750850260528, "lon": 131.47462166946056, "alt_km": 726.9819427701841, "timestamp": "2025-12-20T22:39:11.018284+00:00", "meta": {"OBJECT_NAME": "COSMOS 2251 DEB", "OBJECT_ID": "1993-036FF", "EPOCH": "2025-12-20T07:06:08.155872", "MEAN_MOTION": 14.3627436, "ECCENTRICITY": 0.0123671, "INCLINATION": 73.9935, "RA_OF_ASC_NODE": 176.7482, "ARG_OF_PERICENTER": 342.8449, "MEAN_ANOMALY": 195.3138, "EPHEMERIS_TYPE": 0, "CLASSIFICATION_TYPE": "U", "NORAD_CAT_ID": 33972, "ELEMENT_SET_NO": 999, "REV_AT_EPOCH": 87182, "BSTAR": 0.00083133088, "MEAN_MOTION_DOT": 2.623e-05, "MEAN_MOTION_DDOT": 0}, "tle": {"line1": "1 33972U 93036FF  25354.29592773  .00002623  00000+0  83133-3 0  9991", "line2": "2 33972  73.9935 176.7482 0123671 342.8449 195.3138 14.36274360871823"}}, "geometry": {"type": "Point", "coordinates": [131.47462166946056, -67.57750850260528]}}, {"type": "Feature", "properties": {"norad_id": 33973, "name": "COSMOS 2251 DEB", "group": "cosmos-2251-debris", "lat": -49.365199895879314, "lon": 68.05358337354997, "alt_km": 722.6730595822764, "timestamp": "2025-12-20T22:39:11.018293+00:00", "meta": {"OBJECT_NAME": "COSMOS 2251 DEB", "OBJECT_ID": "1993-036FG", "EPOCH": "2025-12-20T13:00:57.405312", "MEAN_MOTION": 14.45398446, "ECCENTRICITY": 0.00473965, "INCLINATION": 74.0087, "RA_OF_ASC_NODE": 88.3249, "ARG_OF_PERICENTER": 265.3144, "MEAN_ANOMALY": 113.6795, "EPHEMERIS_TYPE": 0, "CLASSIFICATION_TYPE": "U", "NORAD_CAT_ID": 33973, "ELEMENT_SET_NO": 999, "REV_AT_EPOCH": 88713, "BSTAR": 0.00010198027, "MEAN_MOTION_DOT": 3.35e-06, "MEAN_MOTION_DDOT": 0}, "tle": {"line1": "1 33973U 93036FG  25354.54233108  .00000335  00000+0  10198-3 0  9993", "line2": "2 33973  74.0087  88.3249 0047396 265.3144 113.6795 14.45398446887138"}}, "geometry": {"type": "Point", "coordinates": [68.05358337354997, -49.365199895879314]}}, {"type": "Feature", "properties": {"norad_id": 33975, "name": "COSMOS 2251 DEB", "group": "cosmos-2251-debris", "lat": 5.50052487596963, "lon": 71.63586611769404, "alt_km": 1027.1961579069457, "timestamp": "2025-12-20T22:39:11.018303+00:00", "meta": {"OBJECT_NAME": "COSMOS 2251 DEB", "OBJECT_ID": "1993-036FJ", "EPOCH": "2025-12-20T12:20:20.266080", "MEAN_MOTION": 14.00539333, "ECCENTRICITY": 0.01910603, "INCLINATION": 73.8018, "RA_OF_ASC_NODE": 70.787, "ARG_OF_PERICENTER": 202.4885, "MEAN_ANOMALY": 156.7793, "EPHEMERIS_TYPE": 0, "CLASSIFICATION_TYPE": "U", "NORAD_CAT_ID": 33975, "ELEMENT_SET_NO": 999, "REV_AT_EPOCH": 85938, "BSTAR": 0.00039188319, "MEAN_MOTION_DOT": 6.56e-06, "MEAN_MOTION_DDOT": 0}, "tle": {"line1": "1 33975U 93036FJ  25354.51412345  .00000656  00000+0  39188-3 0  9990", "line2": "2 33975  73.8018  70.7870 0191060 202.4885 156.7793 14.00539333859383"}}, "geometry": {"type": "Point", "coordinates": [71.63586611769404, 5.50052487596963]}}]}